start=new Date('2023-07-02T00:00:00.000Z').valueOf();
sats=[{"REF_FRAME":"TEME","OBJECT_ID":"2022-101X","ECCENTRICITY":"0.00010170","TIME_SYSTEM":"UTC","OBJECT_TYPE":"PAYLOAD","ARG_OF_PERICENTER":"88.2394","NORAD_CAT_ID":"53548","RCS_SIZE":"LARGE","ELEMENT_SET_NO":"999","EPHEMERIS_TYPE":"0","MEAN_ELEMENT_THEORY":"SGP4","MEAN_MOTION_DDOT":"0.0000000000000","BSTAR":"-0.00003498400000","REV_AT_EPOCH":"4796","SITE":"AFETR","PERIOD":"95.438","TLE_LINE1":"1 53548U 22101X   23182.07220537 -.00000844  00000-0 -34984-4 0  9993","SEMIMAJOR_AXIS":"6917.901","CLASSIFICATION_TYPE":"U","MEAN_MOTION_DOT":"-0.00000844","COUNTRY_CODE":"US","LAUNCH_DATE":"2022-08-19","MEAN_MOTION":"15.08833247","MEAN_ANOMALY":"271.8714","CENTER_NAME":"EARTH","FILE":"3946501","GP_ID":"234643621","DECAY_DATE":null,"EPOCH":"2023-07-01T01:43:58.543968","PERIAPSIS":"539.062","RA_OF_ASC_NODE":"155.2616","INCLINATION":"53.2163","APOAPSIS":"540.470","TLE_LINE2":"2 53548  53.2163 155.2616 0001017  88.2394 271.8714 15.08833247 47963","OBJECT_NAME":"STARLINK-4513"},{"PERIOD":"95.438","SITE":"AFETR","CLASSIFICATION_TYPE":"U","SEMIMAJOR_AXIS":"6917.898","TLE_LINE1":"1 53549U 22101Y   23182.07956404 -.00001364  00000-0 -67648-4 0  9994","COUNTRY_CODE":"US","MEAN_MOTION_DOT":"-0.00001364","MEAN_ANOMALY":"264.6038","MEAN_MOTION":"15.08834291","LAUNCH_DATE":"2022-08-19","PERIAPSIS":"538.999","EPOCH":"2023-07-01T01:54:34.333056","GP_ID":"234641482","DECAY_DATE":null,"FILE":"3946395","CENTER_NAME":"EARTH","TLE_LINE2":"2 53549  53.2159 155.2277 0001104  95.5080 264.6038 15.08834291 47961","APOAPSIS":"540.527","RA_OF_ASC_NODE":"155.2277","INCLINATION":"53.2159","OBJECT_NAME":"STARLINK-4516","TIME_SYSTEM":"UTC","ECCENTRICITY":"0.00011040","OBJECT_ID":"2022-101Y","REF_FRAME":"TEME","ARG_OF_PERICENTER":"95.5080","OBJECT_TYPE":"PAYLOAD","NORAD_CAT_ID":"53549","RCS_SIZE":"LARGE","EPHEMERIS_TYPE":"0","ELEMENT_SET_NO":"999","MEAN_ELEMENT_THEORY":"SGP4","REV_AT_EPOCH":"4796","BSTAR":"-0.00006764800000","MEAN_MOTION_DDOT":"0.0000000000000"},{"LAUNCH_DATE":"2022-08-19","MEAN_MOTION":"15.08831352","MEAN_ANOMALY":"279.5129","MEAN_MOTION_DOT":"-0.00000482","COUNTRY_CODE":"US","SEMIMAJOR_AXIS":"6917.907","TLE_LINE1":"1 53550U 22101Z   23182.06852741 -.00000482  00000-0 -12174-4 0  9998","CLASSIFICATION_TYPE":"U","SITE":"AFETR","PERIOD":"95.438","OBJECT_NAME":"STARLINK-4518","RA_OF_ASC_NODE":"155.2797","INCLINATION":"53.2166","APOAPSIS":"540.679","TLE_LINE2":"2 53550  53.2166 155.2797 0001311  80.6011 279.5129 15.08831352 47968","CENTER_NAME":"EARTH","DECAY_DATE":null,"GP_ID":"234641476","FILE":"3946395","EPOCH":"2023-07-01T01:38:40.768224","PERIAPSIS":"538.865","NORAD_CAT_ID":"53550","OBJECT_TYPE":"PAYLOAD","ARG_OF_PERICENTER":"80.6011","REF_FRAME":"TEME","ECCENTRICITY":"0.00013110","OBJECT_ID":"2022-101Z","TIME_SYSTEM":"UTC","MEAN_MOTION_DDOT":"0.0000000000000","BSTAR":"-0.00001217400000","REV_AT_EPOCH":"4796","MEAN_ELEMENT_THEORY":"SGP4","ELEMENT_SET_NO":"999","EPHEMERIS_TYPE":"0","RCS_SIZE":"LARGE"},{"OBJECT_TYPE":"PAYLOAD","ARG_OF_PERICENTER":"93.0770","TIME_SYSTEM":"UTC","REF_FRAME":"TEME","OBJECT_ID":"2022-101AA","ECCENTRICITY":"0.00011440","NORAD_CAT_ID":"53551","ELEMENT_SET_NO":"999","EPHEMERIS_TYPE":"0","RCS_SIZE":"LARGE","BSTAR":"-0.00006095300000","REV_AT_EPOCH":"4796","MEAN_MOTION_DDOT":"0.0000000000000","MEAN_ELEMENT_THEORY":"SGP4","CLASSIFICATION_TYPE":"U","TLE_LINE1":"1 53551U 22101AA  23182.07588436 -.00001258  00000-0 -60953-4 0  9997","SEMIMAJOR_AXIS":"6917.903","PERIOD":"95.438","SITE":"AFETR","MEAN_ANOMALY":"267.0353","LAUNCH_DATE":"2022-08-19","MEAN_MOTION":"15.08832493","COUNTRY_CODE":"US","MEAN_MOTION_DOT":"-0.00001258","EPOCH":"2023-07-01T01:49:16.408704","PERIAPSIS":"538.977","CENTER_NAME":"EARTH","DECAY_DATE":null,"GP_ID":"234641485","FILE":"3946395","OBJECT_NAME":"STARLINK-4514","APOAPSIS":"540.560","TLE_LINE2":"2 53551  53.2155 155.2440 0001144  93.0770 267.0353 15.08832493 47964","RA_OF_ASC_NODE":"155.2440","INCLINATION":"53.2155"},{"TIME_SYSTEM":"UTC","OBJECT_ID":"2022-101AB","ECCENTRICITY":"0.00012000","REF_FRAME":"TEME","ARG_OF_PERICENTER":"85.4453","OBJECT_TYPE":"PAYLOAD","NORAD_CAT_ID":"53552","RCS_SIZE":"LARGE","EPHEMERIS_TYPE":"0","ELEMENT_SET_NO":"999","MEAN_ELEMENT_THEORY":"SGP4","REV_AT_EPOCH":"4790","BSTAR":"0.00009334800000","MEAN_MOTION_DDOT":"0.0000000000000","PERIOD":"95.438","SITE":"AFETR","CLASSIFICATION_TYPE":"U","SEMIMAJOR_AXIS":"6917.889","TLE_LINE1":"1 53552U 22101AB  23181.66372271  .00001198  00000-0  93348-4 0  9995","COUNTRY_CODE":"US","MEAN_MOTION_DOT":"0.00001198","MEAN_ANOMALY":"274.6676","MEAN_MOTION":"15.08837181","LAUNCH_DATE":"2022-08-19","PERIAPSIS":"538.924","EPOCH":"2023-06-30T15:55:45.642144","DECAY_DATE":null,"GP_ID":"234636346","FILE":"3946201","CENTER_NAME":"EARTH","TLE_LINE2":"2 53552  53.2165 157.0957 0001200  85.4453 274.6676 15.08837181 47900","APOAPSIS":"540.584","RA_OF_ASC_NODE":"157.0957","INCLINATION":"53.2165","OBJECT_NAME":"STARLINK-4495"},{"OBJECT_NAME":"STARLINK-4501","APOAPSIS":"540.476","TLE_LINE2":"2 53553  53.2162 157.0031 0001049  84.5489 275.5623 15.08838501 47900","RA_OF_ASC_NODE":"157.0031","INCLINATION":"53.2162","EPOCH":"2023-06-30T15:45:08.600256","PERIAPSIS":"539.024","CENTER_NAME":"EARTH","FILE":"3946201","GP_ID":"234635846","DECAY_DATE":null,"MEAN_ANOMALY":"275.5623","LAUNCH_DATE":"2022-08-19","MEAN_MOTION":"15.08838501","COUNTRY_CODE":"US","MEAN_MOTION_DOT":"-0.00000919","CLASSIFICATION_TYPE":"U","TLE_LINE1":"1 53553U 22101AC  23181.65634954 -.00000919  00000-0 -39680-4 0  9995","SEMIMAJOR_AXIS":"6917.885","PERIOD":"95.438","SITE":"AFETR","BSTAR":"-0.00003968000000","REV_AT_EPOCH":"4790","MEAN_MOTION_DDOT":"0.0000000000000","MEAN_ELEMENT_THEORY":"SGP4","ELEMENT_SET_NO":"999","EPHEMERIS_TYPE":"0","RCS_SIZE":"LARGE","NORAD_CAT_ID":"53553","OBJECT_TYPE":"PAYLOAD","ARG_OF_PERICENTER":"84.5489","TIME_SYSTEM":"UTC","REF_FRAME":"TEME","ECCENTRICITY":"0.00010490","OBJECT_ID":"2022-101AC"},{"OBJECT_NAME":"STARLINK-4506","TLE_LINE2":"2 53554  53.2167 154.1560 0001156  90.2990 269.8134 15.08832094 48007","APOAPSIS":"540.569","RA_OF_ASC_NODE":"154.1560","INCLINATION":"53.2167","PERIAPSIS":"538.970","EPOCH":"2023-07-01T07:40:24.488832","GP_ID":"234649024","DECAY_DATE":null,"FILE":"3946722","CENTER_NAME":"EARTH","MEAN_ANOMALY":"269.8134","MEAN_MOTION":"15.08832094","LAUNCH_DATE":"2022-08-19","COUNTRY_CODE":"US","MEAN_MOTION_DOT":"-0.00000737","CLASSIFICATION_TYPE":"U","TLE_LINE1":"1 53554U 22101AD  23182.31972788 -.00000737  00000-0 -28242-4 0  9990","SEMIMAJOR_AXIS":"6917.905","PERIOD":"95.438","SITE":"AFETR","REV_AT_EPOCH":"4800","BSTAR":"-0.00002824200000","MEAN_MOTION_DDOT":"0.0000000000000","MEAN_ELEMENT_THEORY":"SGP4","EPHEMERIS_TYPE":"0","ELEMENT_SET_NO":"999","RCS_SIZE":"LARGE","NORAD_CAT_ID":"53554","ARG_OF_PERICENTER":"90.2990","OBJECT_TYPE":"PAYLOAD","TIME_SYSTEM":"UTC","OBJECT_ID":"2022-101AD","ECCENTRICITY":"0.00011560","REF_FRAME":"TEME"},{"OBJECT_TYPE":"PAYLOAD","ARG_OF_PERICENTER":"89.3528","REF_FRAME":"TEME","ECCENTRICITY":"0.00011520","OBJECT_ID":"2022-101AE","TIME_SYSTEM":"UTC","NORAD_CAT_ID":"53555","ELEMENT_SET_NO":"999","EPHEMERIS_TYPE":"0","RCS_SIZE":"LARGE","MEAN_MOTION_DDOT":"0.0000000000000","BSTAR":"-0.00002823200000","REV_AT_EPOCH":"4800","MEAN_ELEMENT_THEORY":"SGP4","SEMIMAJOR_AXIS":"6917.895","TLE_LINE1":"1 53555U 22101AE  23182.32980666 -.00000737  00000-0 -28232-4 0  9995","CLASSIFICATION_TYPE":"U","SITE":"AFETR","PERIOD":"95.438","LAUNCH_DATE":"2022-08-19","MEAN_MOTION":"15.08835312","MEAN_ANOMALY":"270.7596","MEAN_MOTION_DOT":"-0.00000737","COUNTRY_CODE":"US","CENTER_NAME":"EARTH","DECAY_DATE":null,"GP_ID":"234649028","FILE":"3946722","EPOCH":"2023-07-01T07:54:55.295424","PERIAPSIS":"538.963","OBJECT_NAME":"STARLINK-4504","INCLINATION":"53.2164","RA_OF_ASC_NODE":"154.1041","APOAPSIS":"540.557","TLE_LINE2":"2 53555  53.2164 154.1041 0001152  89.3528 270.7596 15.08835312 48000"},{"TLE_LINE1":"1 53556U 22101AF  23182.31140296  .00000011  00000-0  18761-4 0  9991","SEMIMAJOR_AXIS":"6917.885","CLASSIFICATION_TYPE":"U","SITE":"AFETR","PERIOD":"95.438","MEAN_MOTION":"15.08838622","LAUNCH_DATE":"2022-08-19","MEAN_ANOMALY":"269.1364","MEAN_MOTION_DOT":"0.00000011","COUNTRY_CODE":"US","FILE":"3946722","GP_ID":"234648536","DECAY_DATE":null,"CENTER_NAME":"EARTH","PERIAPSIS":"538.983","EPOCH":"2023-07-01T07:28:25.215744","OBJECT_NAME":"STARLINK-4505","RA_OF_ASC_NODE":"154.1842","INCLINATION":"53.2165","TLE_LINE2":"2 53556  53.2165 154.1842 0001108  90.9755 269.1364 15.08838622 48004","APOAPSIS":"540.516","ARG_OF_PERICENTER":"90.9755","OBJECT_TYPE":"PAYLOAD","ECCENTRICITY":"0.00011080","OBJECT_ID":"2022-101AF","REF_FRAME":"TEME","TIME_SYSTEM":"UTC","NORAD_CAT_ID":"53556","EPHEMERIS_TYPE":"0","ELEMENT_SET_NO":"999","RCS_SIZE":"LARGE","MEAN_MOTION_DDOT":"0.0000000000000","REV_AT_EPOCH":"4800","BSTAR":"0.00001876100000","MEAN_ELEMENT_THEORY":"SGP4"},{"EPOCH":"2023-07-01T07:44:19.445856","PERIAPSIS":"539.076","CENTER_NAME":"EARTH","DECAY_DATE":null,"GP_ID":"234651089","FILE":"3946796","APOAPSIS":"540.452","TLE_LINE2":"2 53557  53.2167 154.1345 0000994  71.5257 288.5843 15.08833903 48003","RA_OF_ASC_NODE":"154.1345","INCLINATION":"53.2167","OBJECT_NAME":"STARLINK-4502","PERIOD":"95.438","SITE":"AFETR","CLASSIFICATION_TYPE":"U","TLE_LINE1":"1 53557U 22101AG  23182.32244729 -.00000491  00000-0 -12769-4 0  9995","SEMIMAJOR_AXIS":"6917.899","COUNTRY_CODE":"US","MEAN_MOTION_DOT":"-0.00000491","MEAN_ANOMALY":"288.5843","LAUNCH_DATE":"2022-08-19","MEAN_MOTION":"15.08833903","RCS_SIZE":"LARGE","ELEMENT_SET_NO":"999","EPHEMERIS_TYPE":"0","MEAN_ELEMENT_THEORY":"SGP4","BSTAR":"-0.00001276900000","REV_AT_EPOCH":"4800","MEAN_MOTION_DDOT":"0.0000000000000","TIME_SYSTEM":"UTC","REF_FRAME":"TEME","OBJECT_ID":"2022-101AG","ECCENTRICITY":"0.00009940","OBJECT_TYPE":"PAYLOAD","ARG_OF_PERICENTER":"71.5257","NORAD_CAT_ID":"53557"}];
